#dP2024  2 18  0  0  0.00000000      96 __u+U IGS20 FIT  IAC
## 2302      0.00000000   900.00000000 60358 0.0000000000000
+  129   C01C02C03C04C05C06C07C08C09C10C11C12C13C14C16C19C20
+        C21C22C23C24C25C26C27C28C29C30C32C33C34C35C36C37C38
+        C39C40C41C42C43C44C45C46C60E02E03E04E05E07E08E09E10
+        E11E12E13E14E15E18E19E21E24E25E26E27E30E31E33E34E36
+        G01G02G03G04G05G06G07G08G09G10G11G12G13G14G15G16G17
+        G18G19G20G21G22G23G24G25G26G27G28G29G30G31G32J02J03
+        J04J07R01R02R03R04R05R06R07R08R09R10R11R12R13R14R15
+        R16R17R18R19R20R21R22R23R24R26  0  0  0  0  0  0  0
++        17 17 17 17 17  9 10 10  9  9  9  9  9  9  9  7  7
++         8  7  7  7  7  7  7  7  7  7  7  8  7  7  7  7  9
++         9  8  7  8  8  7  7  7 17  5  4  4  4  5  5  4  5
++         4  5  4  5  4  4  5  4  4  5  5  4  5  4  5  4  4
++         4  4  4  4  4  4  4  4  4  4  4  4  5  4  4  4  4
++         4  4  4  4  4  4  4  3  4  5  4  4  4  4  4  9  9
++         9 18  8  6  6  6  6 15  6  6  6 15  6  6  8  6  6
++         6  6  6  8  8  6  6 15  6  8  0  0  0  0  0  0  0
%c M  cc GPS ccc cccc cccc cccc cccc ccccc ccccc ccccc ccccc
%c cc cc ccc ccc cccc cccc cccc cccc ccccc ccccc ccccc ccccc
%f  0.0000000  0.000000000  0.00000000000  0.000000000000000
%f  0.0000000  0.000000000  0.00000000000  0.000000000000000
%i    0    0    0    0      0      0      0      0         0
%i    0    0    0    0      0      0      0      0         0
/* INFORMATION & ANALYSIS CENTER (IAC)            RAPID DATA
/* S/V CLOCKS ARE ALIGNED TO GNSS TIME                      
/* G:C1WC2W R:C1PC2P E:C1XC5X C:C2IC6I J:C1CC2S             
/* PCV:IGS20_2290 OL/AL:FES2004  NONE     YN ORB:CoN CLK:CoN
*  2024 02 18 17 15  0.00000000
PC01 -34320.991438  24459.024751   1084.396291    885.033014
PC02   4354.128475  41940.040710   1269.339908    439.279231
PC03 -14876.131069  39464.074598   1203.426730    -18.355057
PC04 -39610.162557  14397.383353    750.353690    836.247314
PC05  21861.734024  36084.903115    892.205441   -744.610722
PC06 -17090.652257  37570.699740  -9306.587571    118.582680
PC07  -3108.467900  33670.470851 -24982.186934   -822.384250
PC08 -12152.633912  19242.686814  35454.494884     28.266991
PC09 -12038.133242  36769.044582 -17035.663047   -507.729416
PC10   3823.115333  36258.505275 -20385.691997     79.741872
PC11   6108.800516 -27086.561630  -2739.575289    417.320414
PC12  15341.595609 -18011.575270  14833.884328    766.860542
PC13  -2180.496019  21782.707355  36189.749440    418.457214
PC14  -2805.116482 -20513.436720 -18721.070686    219.300988
PC16 -19082.008382  37156.506205  -6662.635966   -347.363150
PC19  11406.324560  22483.546594  11965.220634   -925.664996
PC20  -4795.001215  16268.016830  22169.365151   -175.422621
PC21  19589.788916    436.646853 -19841.084330   -961.929447
PC22  22002.485425  16137.122206  -5783.651091   -105.007681
PC23 -20409.321344  -7432.307910  17512.546959   -780.317501
PC24  17926.606754 -15825.847473  14384.130957    896.416169
PC25  -2682.714882 -16183.555108  22561.118412    329.299447
PC26  26988.148896  -6977.675617  -1682.090081   -251.035999
PC27 -17007.115666   9437.197008 -20034.879545    273.017384
PC28 -13700.073900  -9449.611440 -22393.782304    207.757690
PC29   1953.214561  25700.670472  10699.525393    243.524242
PC30 -10896.673700  24595.101037  -7480.138423    -26.809165
PC32 -19675.241663   -363.173701  19811.439652   -569.589879
PC33 -11516.586689 -22421.210528 -11987.838330   -949.807050
PC34  10057.270769 -25309.901773   6012.030997    372.149979
PC35  14064.589987   9116.489535  22305.521978    430.620049
PC36   1789.869870  16361.101998 -22521.989585    -10.376699
PC37 -27141.849876   6078.389051   2089.227266   -937.202731
PC38 -20516.462738  19927.879389  30984.126240    137.619073
PC39 -20954.021400  36728.973303    256.597557     -7.195865
PC40  -6789.452893  29639.418654 -29091.866713    -57.070709
PC41 -21923.436884 -16538.806989   5057.937609   -892.685089
PC42   6227.429609 -15242.528180 -22488.192738   -453.271462
PC43  -1348.121559 -26051.867852  -9885.191255     60.934997
PC44  16750.159701  -9833.979625  20010.697627    388.400054
PC45  20548.839746   7254.745918 -17455.631873    -70.920014
PC46 -17106.349810  15981.572286 -15172.015564   -124.897803
PC60   7285.117422  41511.743065   1572.479053     -0.318904
PE02  27885.013009   9913.659800  -1004.742548    104.461165
PE03  17410.200386  11962.439244 -20732.484071    -94.691138
PE04 -14530.489903  10580.700721  23526.831440   -330.314953
PE05  10087.583087  27198.993596  -5879.804301   4721.269538
PE07   3451.056216 -26451.343546 -12830.261321   -104.458638
PE08  14661.616585  -9797.207097 -23773.607225   -225.916513
PE09  -3461.989858  26362.337416  12999.624970   -340.734645
PE10 -20872.521182  20876.902746   2184.805768   -602.944369
PE11 -13834.849021  23147.727067  12224.034418   3238.879426
PE12 -24122.126788  15672.074649  -7031.365625   -911.967510
PE13  14360.680419 -23100.463554 -11650.124746    -20.228715
PE14     86.590165 -29912.926218   6185.719240     43.084816
PE15  24161.543533 -15310.473941   7598.701520    -86.538465
PE18  -7643.845344  21345.129295 -12868.331994    341.467039
PE19 -16886.802341 -14361.082141  19623.428645   -590.129743
PE21 -15941.154225 -17843.410393  17412.803540   -579.686093
PE24  -6322.308403  15680.981609 -24318.709432   -605.415622
PE25  15568.178974  17922.812809 -17689.713924      1.057550
PE26  -4380.128532 -16977.064553 -23837.745165    372.537697
PE27   5861.278777 -15773.530536  24344.935045   -277.970391
PE30  24111.394142  -4212.682839  16639.128954    -10.417513
PE31 -23926.936414   4440.958469 -16847.870552    -16.301695
PE33 -19333.582027  -1824.845331 -22332.653724      7.789939
PE34  19663.737475   1288.096138  22088.122743    -95.360063
PE36   3655.804657  17273.162598  23768.151249   -187.742964
PG01   8155.444813 -20461.550161 -14938.320633    170.078644
PG02  13923.557106 -21512.791223  -5960.299804   -483.442323
PG03   5087.275533 -13913.847218 -22186.450884    201.346826
PG04   2927.569009 -24007.744642 -10803.465303    294.869608
PG05 -17908.319480   8035.833850  17762.401214   -162.296032
PG06 -18452.952043   -120.675903 -19074.230019    401.998644
PG07  -4122.447962 -16482.278035  20797.497272    -65.009343
PG08   7935.598829 -18117.895961  17419.665208   -167.659967
PG09  -7521.321167 -25401.167670   1343.446558     96.481577
PG10  23758.757895  11055.885452   5494.028272      0.942728
PG11 -22429.002856   9653.371691 -10367.566484   -580.127399
PG12  -6727.584962  13793.734759 -21963.308886   -479.244783
PG13 -13417.263397   9207.184291  20742.031548    626.712758
PG14 -21352.156210 -13544.283225   8462.357087    329.120194
PG15  -5832.369121  19125.748725  16890.983971    129.038153
PG16  22614.761236  -1335.786903  13893.999634   -359.826461
PG17 -12419.733083 -18969.139990 -13283.469050    716.571050
PG18   4330.759011  15429.996994  21159.765850   -558.383100
PG19 -14872.603477 -10492.858587 -19655.128134    442.463194
PG20 -25447.630507   2003.582573   7091.962934    387.016706
PG21  16845.536181 -19780.428564   -866.723016    134.464561
PG22 -24103.984455 -10735.624005   1257.325149     29.122317
PG23  15130.762649  15192.191162  15820.637748    158.938554
PG24 -14236.611199  21677.336459  -5003.637724   -433.809979
PG25   5847.531547  16699.500510 -20224.759339    488.969999
PG26  26323.203879   3269.818825   3374.986064    188.840220
PG27  14111.744121  -5351.443383  21556.365638     -5.150619
PG28  17151.293750   2700.160561 -20117.059146   -135.418378
PG29   4019.167733  26197.842549     -5.155773   -606.717304
PG30 -13799.074799  -8507.660737  21198.197704   -430.893727
PG31  21840.804779  -5768.050543 -14495.331274   -227.808534
PG32  14877.439853  15598.124390 -15451.719245   -612.298403
PJ02 -28232.880889  14910.438383 -22921.061933     -2.101926
PJ03 -26541.343483  32210.006363  -1279.177559     -0.228134
PJ04 -24109.210801  27839.710225  26381.076828     50.884775
PJ07 -25346.165289  33700.253245    -26.792337      0.003326
PR01 -16400.193661 -19252.513778   3382.225843     77.506025
PR02 -15760.529128  -7559.620861  18597.505403    -22.496237
PR03  -6813.724475   9020.758192  22921.985879     94.756283
PR04   5604.767496  20095.693452  14721.457473    223.989700
PR05  14971.735052  20618.687362  -1423.962008    127.105401
PR06  15801.151257   5843.748565 -19166.492252   -151.240457
PR07   6239.691950  -9669.056176 -22714.621099     76.100793
PR08  -5916.313007 -20156.388861 -14381.185910    -74.467870
PR09  25179.992884  -1319.507627  -3557.341290    170.707653
PR10  21517.334739  -7802.222491  11329.630046   -124.785918
PR11   5078.604918 -11206.760263  22346.884027     33.910600
PR12 -15575.698867  -7527.875089  18755.569050     36.883063
PR13 -24798.739186   -171.269163   5938.621961    -44.482905
PR14 -20107.923201   8550.661959 -13171.609378     26.075427
PR15  -3523.652502  11273.969102 -22597.085162     82.083181
PR16  15338.572859   7422.803308 -18966.365449     23.379512
PR17 -13705.505121  19503.548761  -9024.924672     62.309654
PR18  -7443.131102  23235.664596   7557.392452    128.039699
PR19   1239.525657  16415.850844  19488.201225   -266.294861
PR20  12687.902089  -3227.286872  21892.517402   -108.477738
PR21  13798.163361 -19575.394090   8809.311816    -78.000926
PR22   7362.244455 -22890.110368  -8461.562255    108.734323
PR23  -3941.243913 -13565.495030 -21240.735376   -112.364076
PR24 -13131.059507   4191.318995 -21442.158223    -44.441457
PR26  -5356.991135 -19784.734319 -15174.113686   -197.738633
EOF
